227P/Catalina-LINEAR,e,6.5276,47.9594,91.5098,3.553347,0.1471457,0.51307239,213.4311,06/20.0/2021,2000,g 16.5,2.0
# From MPEC 2020-L06
228P/LINEAR,e,7.9117,30.9801,115.1705,4.170925,0.1157059,0.17637232,54.0555,06/20.0/2021,2000,g 14.5,2.0
# From MPC106349
229P/Gibbs,e,26.0915,157.9088,223.9644,3.929698,0.1265218,0.37711196,188.5764,06/20.0/2021,2000,g 13.0,4.0
# From MPC110497
230P/LINEAR,e,15.4762,107.0075,313.3908,3.454530,0.1535043,0.54595913,318.2100,06/20.0/2021,2000,g 13.0,4.0
# From MPEC 2020-K19
231P/LINEAR-NEAT,e,12.3364,133.0126,43.4336,4.028041,0.1219167,0.24736002,89.4995,06/20.0/2021,2000,g 14.5,2.0
# From MPC112394
232P/Hill,e,14.6345,56.0153,53.3969,4.479581,0.1039556,0.33416893,83.8086,06/20.0/2021,2000,g 11.5,4.0
# From MPEC 2021-J28
233P/La Sagra,e,11.2837,74.9216,27.0399,3.030469,0.1868268,0.41181724,48.8310,06/20.0/2021,2000,g 15.0,4.0
# From MPC110497
234P/LINEAR,e,11.5313,179.5638,357.2536,3.800496,0.1330282,0.25482891,197.2704,06/20.0/2021,2000,g 12.0,4.0
# From MPC110497
235P/LINEAR,e,8.9410,203.3743,333.3675,3.965210,0.1248259,0.32347805,148.5926,06/20.0/2021,2000,g 12.0,4.0
# From MPC107688
236P/LINEAR,e,16.3372,245.6217,119.2311,3.730154,0.1368087,0.50893762,178.7894,06/20.0/2021,2000,g 14.0,4.0
# From MPC109593
237P/LINEAR,e,14.0161,245.3933,25.2179,3.512429,0.1497245,0.43450077,256.1713,06/20.0/2021,2000,g 14.5,2.0
# From MPC107688
238P/Read,e,1.2642,51.6345,324.4997,3.166229,0.1749406,0.25228906,298.5314,06/20.0/2021,2000,g 14.5,4.0
# From MPEC 2021-F20
239P/LINEAR,e,11.2970,255.9133,220.4457,4.470501,0.1042725,0.63009946,93.0586,06/20.0/2021,2000,g 17.5,2.0
# From MPEC 2021-F20
240P/NEAT,e,23.5110,74.9137,351.9608,3.866682,0.1296273,0.44895840,146.6702,06/20.0/2021,2000,g 12.1,4.0
# From MPEC 2020-W26
241P/LINEAR,e,21.1066,305.4832,111.4243,4.915351,0.0904424,0.60990305,356.7631,06/20.0/2021,2000,g 13.5,4.0
# From MPC 81861
242P/Spahr,e,32.4924,180.4152,246.0106,5.483407,0.0767588,0.27811543,260.8301,06/20.0/2021,2000,g  8.0,4.0
# From MPC111774
243P/NEAT,e,7.6405,87.6406,283.5328,3.831039,0.1314405,0.36014297,135.1847,06/20.0/2021,2000,g 12.5,4.0
# From MPEC 2020-W26
244P/Scotti,e,2.2594,353.9905,92.9806,4.894642,0.0910170,0.19880278,313.1767,06/20.0/2021,2000,g  9.0,4.0
# From MPEC 2020-K19
245P/WISE,e,21.1976,316.6471,316.8715,4.044443,0.1211758,0.45717606,148.7296,06/20.0/2021,2000,g 14.0,4.0
# From MPEC 2021-F20
246P/NEAT,e,15.9848,78.7457,176.3249,4.017783,0.1223839,0.28717429,14.3274,06/20.0/2021,2000,g 10.4,4.0
# From MPEC 2021-F20
247P/LINEAR,e,13.6531,54.0089,47.4719,3.969383,0.1246291,0.62421533,116.0934,06/20.0/2021,2000,g 16.5,2.0
# From MPC 75730
248P/Gibbs,e,6.3487,207.7707,209.8661,5.991648,0.0672024,0.63828259,255.8863,06/20.0/2021,2000,g 14.0,4.0
# From MPEC 2021-BE3
249P/LINEAR,e,8.3943,239.1643,65.6318,2.762629,0.2146447,0.82010219,76.3066,06/20.0/2021,2000,g 15.5,4.0
# From MPC110497
250P/Larson,e,13.1762,73.5168,46.1505,3.761848,0.1350835,0.40085737,167.1846,06/20.0/2021,2000,g 14.5,4.0
# From MPC104795
251P/LINEAR,e,23.3939,219.3806,31.2856,3.510823,0.1498272,0.50507495,214.9757,06/20.0/2021,2000,g 16.5,2.0
# From MPC102956
252P/LINEAR,e,10.4093,190.9455,343.3005,3.050203,0.1850167,0.67197260,356.1258,06/20.0/2021,2000,g 17.5,4.0
# From MPEC 2020-FB5
253P/PANSTARRS,e,4.9434,146.8833,230.6367,3.466799,0.1526902,0.41389232,173.8581,06/20.0/2021,2000,g 14.5,4.0
# From MPEC 2021-F20
254P/McNaught,e,32.5727,129.1749,219.5123,4.611905,0.0995138,0.31975848,26.1914,06/20.0/2021,2000,g 11.0,4.0
# From NK 2214
255P/Levy,e,13.4558,275.9017,185.8367,2.943969,0.1951211,0.71280645,273.3428,06/20.0/2021,2000,g  9.0,4.0
# From MPC 84027
256P/LINEAR,e,27.6271,81.3508,124.2591,4.637589,0.0986883,0.41807357,297.7830,06/20.0/2021,2000,g 14.0,2.0
# From MPEC 2021-F20
257P/Catalina,e,20.2232,207.7342,117.6538,3.761858,0.1350829,0.43044595,38.1303,06/20.0/2021,2000,g 14.1,4.0
# From MPEC 2021-L04
258P/PANSTARRS,e,6.7460,126.2483,26.0204,4.399003,0.1068249,0.20864467,39.0969,06/20.0/2021,2000,g 13.0,4.0
# From MPC106349
259P/Garradd,e,15.8904,51.4517,257.6347,2.730130,0.2184888,0.33857255,309.0061,06/20.0/2021,2000,g 15.5,4.0
# From MPEC 2020-SI8
260P/McNaught,e,15.0568,349.3392,18.4095,3.622824,0.1429332,0.60912846,92.7459,06/20.0/2021,2000,g 13.5,4.0
# From MPEC 2021-J28
261P/Larson,e,6.0752,291.1586,67.1574,3.490176,0.1511587,0.42321709,110.6562,06/20.0/2021,2000,g 14.0,4.0
# From MPC 82322
262P/McNaught-Russell,e,29.2176,217.8846,171.0120,6.874518,0.0546815,0.81563146,170.7541,06/20.0/2021,2000,g 13.5,4.0
# From MPC 89018
263P/Gibbs,e,11.5336,105.7146,34.5994,3.049605,0.1850711,0.59233401,250.8294,06/20.0/2021,2000,g  9.0,4.0
# From MPC114608
264P/Larsen,e,25.1451,220.6536,346.7299,3.895000,0.1282162,0.37488417,87.8468,06/20.0/2021,2000,g 13.0,4.0
# From MPC 79870
265P/LINEAR,e,14.3650,342.9268,33.4296,4.251653,0.1124262,0.64742858,14.7221,06/20.0/2021,2000,g 14.5,4.0
# From MPEC 2021-F20
266P/Christensen,e,3.4269,4.9968,97.7884,3.534200,0.1483431,0.33943924,63.2944,06/20.0/2021,2000,g 14.7,4.0
# From MPC114608
267P/LONEOS,e,6.1388,228.6220,114.1438,3.211836,0.1712277,0.61428144,182.0162,06/20.0/2021,2000,g 19.5,4.0
# From MPC 92277
268P/Bernardi,e,16.1385,127.5752,359.9049,4.544352,0.1017410,0.47490336,228.8311,06/20.0/2021,2000,g 14.0,4.0
# From MPC104795
269P/Jedicke,e,7.0727,241.7097,225.8649,7.076765,0.0523543,0.43046768,128.5672,06/20.0/2021,2000,g 10.0,4.0
# From MPC 88332
270P/Gehrels,e,2.9198,222.9802,209.8307,6.665672,0.0572715,0.46749466,168.0940,06/20.0/2021,2000,g  8.0,4.0
# From MPC 92277
271P/van Houten-Lemmon,e,6.8700,9.3087,36.3987,7.043405,0.0527266,0.39422464,152.9167,06/20.0/2021,2000,g 11.0,4.0
# From MPC 81862
272P/NEAT,e,18.0761,109.4673,27.9372,4.456863,0.1047515,0.45433710,318.9170,06/20.0/2021,2000,g 16.0,2.0
# From MPC 82723
273P/Pons-Gambart,e,136.7948,320.4011,20.3281,31.82891,0.0054887,0.97411124,0.0000,12/18.3034/2012,2000,g 11.5,4.0
# From MPC 88332
274P/Tombaugh-Tenagra,e,15.8173,81.3393,38.4872,4.372874,0.1077838,0.43902279,328.4687,06/20.0/2021,2000,g 13.0,4.0
# From MPC 81862
275P/Hermann,e,21.2748,348.7571,174.0621,5.773048,0.0710553,0.71239031,220.6007,06/20.0/2021,2000,g 17.0,4.0
# From MPEC 2020-K19
276P/Vorobjov,e,14.8114,211.3947,199.7140,5.317707,0.0803744,0.26724541,257.5659,06/20.0/2021,2000,g 11.5,4.0
# From MPEC 2021-F20
277P/LINEAR,e,16.7780,276.3443,152.3156,3.853098,0.1303134,0.50573752,22.3914,06/20.0/2021,2000,g 15.1,4.0
# From MPEC 2020-W26
278P/McNaught,e,6.6880,15.3998,238.0720,3.695806,0.1387204,0.43558638,38.9824,06/20.0/2021,2000,g 14.0,4.0
# From MPC100285
279P/La Sagra,e,5.0525,346.2329,5.7923,3.574183,0.1458609,0.39848969,262.4809,06/20.0/2021,2000,g 14.0,4.0
# From MPC 89013
280P/Larsen,e,11.7753,131.3928,104.7920,4.529454,0.1022434,0.41762451,280.6967,06/20.0/2021,2000,g 12.5,4.0
# From MPC 83145
281P/MOSS,e,4.7195,87.1770,26.7441,4.871876,0.0916558,0.17189440,305.7062,06/20.0/2021,2000,g 11.0,4.0
# From MPC xxxxx
282P/,e,5.8113,9.2951,217.6169,4.242101,0.1128061,0.18884145,345.7258,06/20.0/2021,2000,g 13.5,2.0
# From MPEC 2021-BE3
283P/Spacewatch,e,14.4549,161.1289,22.2528,4.139479,0.1170269,0.48491396,350.6350,06/20.0/2021,2000,g 16.0,2.0
# From MPEC 2020-K19
284P/McNaught,e,11.8611,144.2629,202.4805,3.680241,0.1396014,0.37622331,348.1610,06/20.0/2021,2000,g 13.0,4.0
# From MPC 85339
285P/LINEAR,e,25.0365,185.5011,178.4186,4.508136,0.1029695,0.61840080,301.1583,06/20.0/2021,2000,g 15.0,4.0
# From MPEC 2021-J28
286P/Christensen,e,17.0452,283.9584,24.8345,4.109201,0.1183227,0.42535220,321.3556,06/20.0/2021,2000,g 14.0,4.0
# From MPC 96868
287P/Christensen,e,16.3199,139.0452,188.9377,4.165447,0.1159342,0.27093848,273.7177,06/20.0/2021,2000,g 13.5,4.0
# From MPC xxxxx
288P/,e,3.2390,83.1834,280.4689,3.050444,0.1849948,0.20146063,312.6789,06/20.0/2021,2000,g 16.0,2.0
# From MPEC 2021-F20
289P/Blanpain,e,5.8949,68.8852,9.8627,3.046902,0.1853175,0.68544250,101.3766,06/20.0/2021,2000,g 19.0,4.0
# From MPC 95214
290P/Jager,e,20.1675,302.6910,181.9541,6.206550,0.0637424,0.62982208,171.5632,06/20.0/2021,2000,g 10.5,4.0
# From MPC 89314
291P/NEAT,e,6.3066,238.0443,173.7749,4.524572,0.1024089,0.43555790,289.8615,06/20.0/2021,2000,g 13.0,4.0
# From MPC115887
292P/Li,e,24.2617,90.9786,319.4563,6.107122,0.0653054,0.58835175,176.1541,06/20.0/2021,2000,g 12.5,4.0
# From MPEC 2021-L04
293P/Spacewatch,e,9.0564,78.4078,41.0464,3.643844,0.1416982,0.41826720,25.8977,06/20.0/2021,2000,g 14.5,4.0
# From MPEC 2020-SI8
294P/LINEAR,e,18.2187,312.5791,235.3709,3.202681,0.1719624,0.59672922,97.5557,06/20.0/2021,2000,g 15.5,4.0
# From MPC 93589
295P/LINEAR,e,21.0737,7.4264,72.9002,5.306501,0.0806291,0.61617676,209.9261,06/20.0/2021,2000,g 12.0,4.0
# From MPEC 2020-SI8
296P/Garradd,e,25.2284,263.6176,350.1013,3.497202,0.1507034,0.47877545,41.4650,06/20.0/2021,2000,g 14.0,4.0
# From MPC102956
297P/Beshore,e,10.3282,97.6600,132.5252,3.442779,0.1542909,0.31929910,22.8432,06/20.0/2021,2000,g 15.0,4.0
# From MPC114609
298P/Christensen,e,7.8706,52.8220,100.6753,3.591687,0.1447959,0.38660572,41.5118,06/20.0/2021,2000,g 15.0,4.0
# From MPC101100
299P/Catalina-PANSTARRS,e,10.4742,271.6253,323.8842,4.385313,0.1073256,0.28144903,247.7459,06/20.0/2021,2000,g 11.5,4.0
# From MPC114609
300P/Catalina,e,5.6751,95.6573,222.8932,2.699957,0.2221616,0.69178793,213.3808,06/20.0/2021,2000,g 16.0,4.0
# From MPC 89014
301P/LINEAR-NEAT,e,10.3404,351.1757,193.6932,5.738886,0.0716907,0.58526003,178.3882,06/20.0/2021,2000,g 13.0,4.0
# From MPEC 2020-HN5
302P/Lemmon-PANSTARRS,e,6.0342,121.7544,208.2564,4.276057,0.1114651,0.23016640,208.8222,06/20.0/2021,2000,g 12.5,4.0
# From MPC 92278
303P/NEAT,e,7.0211,347.9713,356.8882,5.047311,0.0869189,0.51065349,211.8351,06/20.0/2021,2000,g 13.5,4.0
# From MPEC 2020-N08
304P/Ory,e,2.6067,58.9301,335.2339,3.150549,0.1762482,0.60054534,54.9147,06/20.0/2021,2000,g 16.5,4.0
# From MPC101100
305P/Skiff,e,11.6506,240.1150,147.2913,4.643782,0.0984910,0.69331999,237.2267,06/20.0/2021,2000,g 18.0,4.0
# From MPC 92278
